{"type": "FeatureCollection", "features": [ {"type": "Feature", "properties": {"norad_id": 33841, "name": "COSMOS 2251 DEB", "group": "cosmos-2251-debris", "lat": -2.377793904125397, "lon": -90.30206159336879, "alt_km": 753.8255649998773, "timestamp": "2025-12-16T21:38:57.568028+00:00", "meta": {"OBJECT_NAME": "COSMOS 2251 DEB", "OBJECT_ID": "1993-036CJ", "EPOCH": "2025-12-16T05:43:55.968672", "MEAN_MOTION": 14.37866051, "ECCENTRICITY": 0.0020686, "INCLINATION": 74.0378, "RA_OF_ASC_NODE": 271.5995, "ARG_OF_PERICENTER": 351.3438, "MEAN_ANOMALY": 174.6482, "EPHEMERIS_TYPE": 0, "CLASSIFICATION_TYPE": "U", "NORAD_CAT_ID": 33841, "ELEMENT_SET_NO": 999, "REV_AT_EPOCH": 88164, "BSTAR": 0.00022221468, "MEAN_MOTION_DOT": 6.46e-06, "MEAN_MOTION_DDOT": 0}, "tle": {"line1": "1 33841U 93036CJ  25350.23884223  .00000646  00000+0  22221-3 0  9994", "line2": "2 33841  74.0378 271.5995 0020686 351.3438 174.6482 14.37866051881647"}}, "geometry": {"type": "Point", "coordinates": [-90.30206159336879, -2.377793904125397]}}, {"type": "Feature", "properties": {"norad_id": 33842, "name": "COSMOS 2251 DEB", "group": "cosmos-2251-debris", "lat": -33.720687423941136, "lon": -159.0906437920219, "alt_km": 721.8213433986384, "timestamp": "2025-12-16T21:38:57.568039+00:00", "meta": {"OBJECT_NAME": "COSMOS 2251 DEB", "OBJECT_ID": "1993-036CK", "EPOCH": "2025-12-16T01:50:25.947744", "MEAN_MOTION": 14.42704181, "ECCENTRICITY": 0.00473945, "INCLINATION": 74.0323, "RA_OF_ASC_NODE": 213.458, "ARG_OF_PERICENTER": 320.1087, "MEAN_ANOMALY": 39.6589, "EPHEMERIS_TYPE": 0, "CLASSIFICATION_TYPE": "U", "NORAD_CAT_ID": 33842, "ELEMENT_SET_NO": 999, "REV_AT_EPOCH": 88385, "BSTAR": 0.00026292826, "MEAN_MOTION_DOT": 8.6e-06, "MEAN_MOTION_DDOT": 0}, "tle": {"line1": "1 33842U 93036CK  25350.07668921  .00000860  00000+0  26293-3 0  9993", "line2": "2 33842  74.0323 213.4580 0047394 320.1087  39.6589 14.42704181883856"}}, "geometry": {"type": "Point", "coordinates": [-159.0906437920219, -33.720687423941136]}}, {"type": "Feature", "properties": {"norad_id": 33844, "name": "COSMOS 2251 DEB", "group": "cosmos-2251-debris", "lat": 55.19548008572726, "lon": -159.0840103276098, "alt_km": 754.5173529837039, "timestamp": "2025-12-16T21:38:57.568050+00:00", "meta": {"OBJECT_NAME": "COSMOS 2251 DEB", "OBJECT_ID": "1993-036CM", "EPOCH": "2025-12-16T06:18:52.780032", "MEAN_MOTION": 14.33723474, "ECCENTRICITY": 0.00470468, "INCLINATION": 74.067, "RA_OF_ASC_NODE": 46.3464, "ARG_OF_PERICENTER": 67.1357, "MEAN_ANOMALY": 357.1972, "EPHEMERIS_TYPE": 0, "CLASSIFICATION_TYPE": "U", "NORAD_CAT_ID": 33844, "ELEMENT_SET_NO": 999, "REV_AT_EPOCH": 87776, "BSTAR": 0.00033452849, "MEAN_MOTION_DOT": 9.15e-06, "MEAN_MOTION_DDOT": 0}, "tle": {"line1": "1 33844U 93036CM  25350.26311088  .00000915  00000+0  33453-3 0  9992", "line2": "2 33844  74.0670  46.3464 0047046  67.1357 357.1972 14.33723474877762"}}, "geometry": {"type": "Point", "coordinates": [-159.0840103276098, 55.19548008572726]}}, {"type": "Feature", "properties": {"norad_id": 33848, "name": "COSMOS 2251 DEB", "group": "cosmos-2251-debris", "lat": 73.11089385934096, "lon": 99.3248599698568, "alt_km": 719.0843557909093, "timestamp": "2025-12-16T21:38:57.568061+00:00", "meta": {"OBJECT_NAME": "COSMOS 2251 DEB", "OBJECT_ID": "1993-036CR", "EPOCH": "2025-12-16T08:27:44.858592", "MEAN_MOTION": 14.44086469, "ECCENTRICITY": 0.00412956, "INCLINATION": 74.0318, "RA_OF_ASC_NODE": 350.9207, "ARG_OF_PERICENTER": 45.6489, "MEAN_ANOMALY": 74.2269, "EPHEMERIS_TYPE": 0, "CLASSIFICATION_TYPE": "U", "NORAD_CAT_ID": 33848, "ELEMENT_SET_NO": 999, "REV_AT_EPOCH": 87883, "BSTAR": 0.00078574286, "MEAN_MOTION_DOT": 2.693e-05, "MEAN_MOTION_DDOT": 0}, "tle": {"line1": "1 33848U 93036CR  25350.35260253  .00002693  00000+0  78574-3 0  9991", "line2": "2 33848  74.0318 350.9207 0041295  45.6489  74.2269 14.44086469878834"}}, "geometry": {"type": "Point", "coordinates": [99.3248599698568, 73.11089385934096]}}, {"type": "Feature", "properties": {"norad_id": 33892, "name": "COSMOS 2251 DEB", "group": "cosmos-2251-debris", "lat": 63.0584189691836, "lon": 129.34638983559995, "alt_km": 762.381578924389, "timestamp": "2025-12-16T21:38:57.568071+00:00", "meta": {"OBJECT_NAME": "COSMOS 2251 DEB", "OBJECT_ID": "1993-036CV", "EPOCH": "2025-12-16T08:06:09.801216", "MEAN_MOTION": 14.23352605, "ECCENTRICITY": 0.01126312, "INCLINATION": 73.8031, "RA_OF_ASC_NODE": 95.4942, "ARG_OF_PERICENTER": 126.0323, "MEAN_ANOMALY": 292.1503, "EPHEMERIS_TYPE": 0, "CLASSIFICATION_TYPE": "U", "NORAD_CAT_ID": 33892, "ELEMENT_SET_NO": 999, "REV_AT_EPOCH": 87006, "BSTAR": 0.00061608147, "MEAN_MOTION_DOT": 1.465e-05, "MEAN_MOTION_DDOT": 0}, "tle": {"line1": "1 33892U 93036CV  25350.33761344  .00001465  00000+0  61608-3 0  9991", "line2": "2 33892  73.8031  95.4942 0112631 126.0323 292.1503 14.23352605870067"}}, "geometry": {"type": "Point", "coordinates": [129.34638983559995, 63.0584189691836]}}, {"type": "Feature", "properties": {"norad_id": 33894, "name": "COSMOS 2251 DEB", "group": "cosmos-2251-debris", "lat": -65.79111165636012, "lon": -156.97273695015684, "alt_km": 754.2525995718088, "timestamp": "2025-12-16T21:38:57.568082+00:00", "meta": {"OBJECT_NAME": "COSMOS 2251 DEB", "OBJECT_ID": "1993-036CX", "EPOCH": "2025-12-16T02:10:12.486720", "MEAN_MOTION": 13.21313502, "ECCENTRICITY": 0.0579398, "INCLINATION": 73.7668, "RA_OF_ASC_NODE": 343.8946, "ARG_OF_PERICENTER": 262.8714, "MEAN_ANOMALY": 90.6188, "EPHEMERIS_TYPE": 0, "CLASSIFICATION_TYPE": "U", "NORAD_CAT_ID": 33894, "ELEMENT_SET_NO": 999, "REV_AT_EPOCH": 80752, "BSTAR": 0.00072722864, "MEAN_MOTION_DOT": 7e-06, "MEAN_MOTION_DDOT": 0}, "tle": {"line1": "1 33894U 93036CX  25350.09042230  .00000700  00000+0  72723-3 0  9993", "line2": "2 33894  73.7668 343.8946 0579398 262.8714  90.6188 13.21313502807529"}}, "geometry": {"type": "Point", "coordinates": [-156.97273695015684, -65.79111165636012]}}, {"type": "Feature", "properties": {"norad_id": 33896, "name": "COSMOS 2251 DEB", "group": "cosmos-2251-debris", "lat": 68.24400536297577, "lon": -163.98120198891147, "alt_km": 853.5649939057512, "timestamp": "2025-12-16T21:38:57.568092+00:00", "meta": {"OBJECT_NAME": "COSMOS 2251 DEB", "OBJECT_ID": "1993-036CZ", "EPOCH": "2025-12-15T22:23:13.176096", "MEAN_MOTION": 14.19046999, "ECCENTRICITY": 0.01266396, "INCLINATION": 73.766, "RA_OF_ASC_NODE": 150.8859, "ARG_OF_PERICENTER": 326.0726, "MEAN_ANOMALY": 198.2889, "EPHEMERIS_TYPE": 0, "CLASSIFICATION_TYPE": "U", "NORAD_CAT_ID": 33896, "ELEMENT_SET_NO": 999, "REV_AT_EPOCH": 86785, "BSTAR": 0.00055604269, "MEAN_MOTION_DOT": 1.23e-05, "MEAN_MOTION_DDOT": 0}, "tle": {"line1": "1 33896U 93036CZ  25349.93279139  .00001230  00000+0  55604-3 0  9994", "line2": "2 33896  73.7660 150.8859 0126639 326.0726 198.2889 14.19046999867850"}}, "geometry": {"type": "Point", "coordinates": [-163.98120198891147, 68.24400536297577]}}, {"type": "Feature", "properties": {"norad_id": 33899, "name": "COSMOS 2251 DEB", "group": "cosmos-2251-debris", "lat": 3.9733378567627238, "lon": 78.91395717067526, "alt_km": 719.4979778371762, "timestamp": "2025-12-16T21:38:57.568102+00:00", "meta": {"OBJECT_NAME": "COSMOS 2251 DEB", "OBJECT_ID": "1993-036DC", "EPOCH": "2025-12-16T07:08:05.025696", "MEAN_MOTION": 14.61223986, "ECCENTRICITY": 0.00565587, "INCLINATION": 74.0541, "RA_OF_ASC_NODE": 78.9306, "ARG_OF_PERICENTER": 140.6015, "MEAN_ANOMALY": 284.052, "EPHEMERIS_TYPE": 0, "CLASSIFICATION_TYPE": "U", "NORAD_CAT_ID": 33899, "ELEMENT_SET_NO": 999, "REV_AT_EPOCH": 88891, "BSTAR": 0.00061184539, "MEAN_MOTION_DOT": 3.056e-05, "MEAN_MOTION_DDOT": 0}, "tle": {"line1": "1 33899U 93036DC  25350.29728039  .00003056  00000+0  61185-3 0  9995", "line2": "2 33899  74.0541  78.9306 0056558 140.6015 284.0520 14.61223986888911"}}, "geometry": {"type": "Point", "coordinates": [78.91395717067526, 3.9733378567627238]}}, {"type": "Feature", "properties": {"norad_id": 33900, "name": "COSMOS 2251 DEB", "group": "cosmos-2251-debris", "lat": -2.933281541552508, "lon": -8.908229270576562, "alt_km": 728.753436370328, "timestamp": "2025-12-16T21:38:57.568113+00:00", "meta": {"OBJECT_NAME": "COSMOS 2251 DEB", "OBJECT_ID": "1993-036DD", "EPOCH": "2025-12-16T06:56:38.715936", "MEAN_MOTION": 14.58360319, "ECCENTRICITY": 0.00466535, "INCLINATION": 74.0191, "RA_OF_ASC_NODE": 353.1, "ARG_OF_PERICENTER": 144.222, "MEAN_ANOMALY": 237.6314, "EPHEMERIS_TYPE": 0, "CLASSIFICATION_TYPE": "U", "NORAD_CAT_ID": 33900, "ELEMENT_SET_NO": 999, "REV_AT_EPOCH": 89088, "BSTAR": 0.00030019256, "MEAN_MOTION_DOT": 1.381e-05, "MEAN_MOTION_DDOT": 0}, "tle": {"line1": "1 33900U 93036DD  25350.28933699  .00001381  00000+0  30019-3 0  9998", "line2": "2 33900  74.0191 353.1000 0046653 144.2220 237.6314 14.58360319890889"}}, "geometry": {"type": "Point", "coordinates": [-8.908229270576562, -2.933281541552508]}}, {"type": "Feature", "properties": {"norad_id": 33901, "name": "COSMOS 2251 DEB", "group": "cosmos-2251-debris", "lat": 52.977751644831244, "lon": -162.23066578104022, "alt_km": 497.217343887296, "timestamp": "2025-12-16T21:38:57.568123+00:00", "meta": {"OBJECT_NAME": "COSMOS 2251 DEB", "OBJECT_ID": "1993-036DE", "EPOCH": "2025-12-16T05:16:15.073824", "MEAN_MOTION": 15.163396, "ECCENTRICITY": 0.00310857, "INCLINATION": 73.7746, "RA_OF_ASC_NODE": 41.9282, "ARG_OF_PERICENTER": 173.8054, "MEAN_ANOMALY": 186.3531, "EPHEMERIS_TYPE": 0, "CLASSIFICATION_TYPE": "U", "NORAD_CAT_ID": 33901, "ELEMENT_SET_NO": 999, "REV_AT_EPOCH": 89566, "BSTAR": 0.0020786879, "MEAN_MOTION_DOT": 0.00041009, "MEAN_MOTION_DDOT": 0}, "tle": {"line1": "1 33901U 93036DE  25350.21961891  .00041009  00000+0  20787-2 0  9998", "line2": "2 33901  73.7746  41.9282 0031085 173.8054 186.3531 15.16339600895668"}}, "geometry": {"type": "Point", "coordinates": [-162.23066578104022, 52.977751644831244]}}]}